IRIDIUM 166             
1 43570U 18061B   24115.79456205  .00000139  00000+0  42609-4 0  9993
2 43570  86.4023  24.1190 0002185  79.3905 280.7537 14.34215589301110
IRIDIUM 158             
1 43571U 18061C   24115.69308330  .00000224  00000+0  72934-4 0  9997
2 43571  86.4022  24.1704 0002179  90.3210 269.8235 14.34218019301064
IRIDIUM 165             
1 43572U 18061D   24115.78822286  .00000348  00000+0  11719-3 0  9999
2 43572  86.4022  24.1624 0001985  82.5935 277.5486 14.34218199301105
IRIDIUM 155             
1 43573U 18061E   24115.81991697  .00000052  00000+0  11648-4 0  9991
2 43573  86.4018  24.0566 0002233  83.8359 276.3091 14.34209028301072
IRIDIUM 154             
1 43574U 18061F   24115.80090487  .00000929  00000+0  32474-3 0  9990
2 43574  86.4021  24.1597 0002258  87.7892 272.3563 14.34219263301122
IRIDIUM 163             
1 43575U 18061G   24115.71210140  .00000825  00000+0  28765-3 0  9994
2 43575  86.4020  24.1370 0002319  84.9829 275.1631 14.34221720301081
IRIDIUM 156             
1 43576U 18061H   24115.82627713  .00000555  00000+0  19108-3 0  9996
2 43576  86.4020  24.0952 0002151  85.6751 274.4691 14.34213837301092
IRIDIUM 164             
1 43577U 18061J   24115.66771426  .00000157  00000+0  48873-4 0  9990
2 43577  86.4019  24.1901 0001985  91.9765 268.1658 14.34217212301112
